     2.11           N: GPS NAV DATA                         RINEX VERSION / TYPE
teqc  2019Feb25                         20221110 12:17:39UTCPGM / RUN BY / DATE
Linux2.6.32-573.12.1.el6.x86_64|x86_64|gcc|Win64-MinGW64|=+ COMMENT
                                                            END OF HEADER
 2 22 11  4 22  0  0.0-6.393375806510D-04 1.705302565824D-12 0.000000000000D+00
    8.400000000000D+01 1.200000000000D+01 3.908734225178D-09 2.151528008440D+00
    5.848705768585D-07 2.009283029474D-02 1.192651689053D-05 5.154901405334D+03
    5.112000000000D+05 3.185123205185D-07-3.558658502582D-01 9.313225746155D-09
    9.670181160718D-01 1.462812500000D+02-1.387029478934D+00-7.451738781583D-09
    3.500145659419D-11 1.000000000000D+00 2.234000000000D+03 0.000000000000D+00
    2.000000000000D+00 0.000000000000D+00-1.769512891769D-08 8.400000000000D+01
    5.040300000000D+05
32 22 11  4 22  0  0.0-2.855602651834D-04-1.239186531166D-11 0.000000000000D+00
    1.900000000000D+01-8.390625000000D+01 4.831986810672D-09-2.980091723182D-01
   -4.280358552933D-06 6.188082741573D-03 7.826834917068D-06 5.153665189743D+03
    5.112000000000D+05 3.725290298462D-08 1.809553271934D+00 8.940696716309D-08
    9.584352327545D-01 2.289062500000D+02-2.299389246586D+00-8.365705461699D-09
   -3.939449877421D-10 1.000000000000D+00 2.234000000000D+03 0.000000000000D+00
    2.000000000000D+00 0.000000000000D+00 4.656612873077D-10 1.900000000000D+01
    5.040300000000D+05
12 22 11  4 22  0  0.0-3.004097379744D-04-4.433786671143D-12 0.000000000000D+00
    9.100000000000D+01 4.725000000000D+01 4.796628427783D-09 1.655358032992D+00
    2.220273017883D-06 8.592947619036D-03 4.155561327934D-06 5.153712320328D+03
    5.112000000000D+05-1.192092895508D-07-2.300593336421D+00-2.197921276093D-07
    9.675125706792D-01 3.016562500000D+02 1.318453529167D+00-8.360705017196D-09
    1.482204636805D-10 1.000000000000D+00 2.234000000000D+03 0.000000000000D+00
    2.000000000000D+00 0.000000000000D+00-1.257285475731D-08 9.100000000000D+01
    5.040300000000D+05
22 22 11  4 22  0  0.0 3.584944643080D-04 7.048583938740D-12 0.000000000000D+00
    8.100000000000D+01-8.021875000000D+01 4.684480803263D-09-1.252735044620D+00
   -3.863126039505D-06 1.350658293813D-02 8.715316653252D-06 5.153752182007D+03
    5.112000000000D+05 8.009374141693D-08 1.900787012483D+00 3.371387720108D-07
    9.616009947926D-01 2.106875000000D+02-1.845030084269D+00-8.220342628817D-09
   -4.193031755140D-10 1.000000000000D+00 2.234000000000D+03 0.000000000000D+00
    2.000000000000D+00 0.000000000000D+00-8.381903171539D-09 8.100000000000D+01
    5.040300000000D+05
 6 22 11  4 22  0  0.0 5.100145936012D-04 9.777068044059D-12 0.000000000000D+00
    2.700000000000D+01 1.640625000000D+01 3.618007893280D-09-3.003433542274D+00
    8.773058652878D-07 2.576405880973D-03 1.146085560322D-05 5.153554574966D+03
    5.112000000000D+05 3.352761268616D-08-2.695660232955D-01-7.450580596924D-09
    9.884889682704D-01 1.761562500000D+02-9.158586697841D-01-7.552814373923D-09
    1.203621508017D-10 1.000000000000D+00 2.234000000000D+03 0.000000000000D+00
    2.000000000000D+00 0.000000000000D+00 3.725290298462D-09 2.700000000000D+01
    5.040300000000D+05
26 22 11  4 22  0  0.0 2.347924746573D-04 1.136868377216D-12 0.000000000000D+00
    1.830000000000D+02 7.196875000000D+01 5.572017958144D-09 7.563685100359D-01
    3.922730684280D-06 7.385439705104D-03 4.172325134277D-06 5.153582277298D+03
    5.112000000000D+05 5.587935447693D-09-2.432401774063D+00 6.146728992462D-08
    9.359900522455D-01 2.821562500000D+02 3.909907196129D-01-8.833939801889D-09
    1.660783455204D-10 1.000000000000D+00 2.234000000000D+03 0.000000000000D+00
    2.000000000000D+00 0.000000000000D+00 6.984919309616D-09 1.830000000000D+02
    5.077500000000D+05
20 22 11  4 21 59 44.0 4.727588966489D-04-3.069544618484D-12 0.000000000000D+00
    1.900000000000D+01 4.212500000000D+01 5.020923232735D-09-2.214943570273D+00
    2.240762114525D-06 4.763713805005D-03 5.031004548073D-06 5.153678415298D+03
    5.111840000000D+05-3.725290298462D-09 6.079146525540D-01-7.078051567078D-08
    9.455372253293D-01 2.732187500000D+02-3.048032146225D+00-8.450352417810D-09
    4.421612798122D-10 1.000000000000D+00 2.234000000000D+03 0.000000000000D+00
    2.000000000000D+00 0.000000000000D+00-8.381903171539D-09 1.900000000000D+01
    5.082000000000D+05
18 22 11  4 22  0  0.0-1.010019332170D-05-1.375610736432D-11 0.000000000000D+00
    2.390000000000D+02 2.943750000000D+01 3.956236227509D-09-3.065605019554D+00
    1.486390829086D-06 2.949732239358D-03 1.226551830769D-05 5.153722240448D+03
    5.112000000000D+05-2.235174179077D-08-2.573330569662D-01 1.303851604462D-08
    9.730539595346D-01 1.489687500000D+02 3.126131735112D+00-7.751037145454D-09
    2.192948461710D-10 1.000000000000D+00 2.234000000000D+03 0.000000000000D+00
    2.000000000000D+00 0.000000000000D+00-8.381903171539D-09 1.007000000000D+03
    5.082300000000D+05
 5 22 11  4 22  0  0.0-1.030494458973D-04-1.477928890381D-12 0.000000000000D+00
    5.100000000000D+01 3.000000000000D+01 4.733768488308D-09-7.541799684972D-01
    1.762062311172D-06 5.927530699410D-03 4.701316356659D-06 5.153554098129D+03
    5.112000000000D+05 1.490116119385D-08 7.267147377858D-01 5.587935447693D-08
    9.630305715060D-01 2.891562500000D+02 1.140796266081D+00-8.432136766601D-09
    3.782300306288D-10 1.000000000000D+00 2.234000000000D+03 0.000000000000D+00
    2.000000000000D+00 0.000000000000D+00-1.117587089539D-08 5.100000000000D+01
    5.105400000000D+05
25 22 11  4 21 59 28.0 3.893924877048D-04 3.751665644813D-12 0.000000000000D+00
    5.000000000000D+00 6.165625000000D+01 5.142357206722D-09 1.509578401463D+00
    3.101304173470D-06 1.072952931281D-02 4.529953002930D-06 5.153591352463D+03
    5.111680000000D+05-2.793967723846D-07-2.380517947796D+00-3.352761268616D-08
    9.551465022114D-01 2.897187500000D+02 1.004978037278D+00-8.613572965999D-09
    2.053656966705D-10 1.000000000000D+00 2.234000000000D+03 0.000000000000D+00
    2.000000000000D+00 0.000000000000D+00 5.587935447693D-09 5.000000000000D+00
    5.107500000000D+05
